{
    "links": {
        "self": "http://www.neowsapp.com/rest/v1/neo/3789397?api_key=iIulBulltgU6a56xZRHN4H3l9WmuAYTsLGpBGhQ2"
    },
    "id": "3789397",
    "neo_reference_id": "3789397",
    "name": "(2017 VX13)",
    "designation": "2017 VX13",
    "nasa_jpl_url": "http://ssd.jpl.nasa.gov/sbdb.cgi?sstr=3789397",
    "absolute_magnitude_h": 23.7,
    "estimated_diameter": {
        "kilometers": {
            "estimated_diameter_min": 0.0483676488,
            "estimated_diameter_max": 0.1081533507
        },
        "meters": {
            "estimated_diameter_min": 48.3676488219,
            "estimated_diameter_max": 108.1533506775
        },
        "miles": {
            "estimated_diameter_min": 0.0300542543,
            "estimated_diameter_max": 0.0672033557
        },
        "feet": {
            "estimated_diameter_min": 158.6865169607,
            "estimated_diameter_max": 354.8338390368
        }
    },
    "is_potentially_hazardous_asteroid": false,
    "close_approach_data": [
        {
            "close_approach_date": "2013-12-02",
            "close_approach_date_full": "2013-Dec-02 14:16",
            "epoch_date_close_approach": 1385993760000,
            "relative_velocity": {
                "kilometers_per_second": "8.7003258049",
                "kilometers_per_hour": "31321.1728975678",
                "miles_per_hour": "19461.7587929359"
            },
            "miss_distance": {
                "astronomical": "0.4637374899",
                "lunar": "180.3938835711",
                "kilometers": "69374140.728186513",
                "miles": "43107092.1460713594"
            },
            "orbiting_body": "Earth"
        },
        {
            "close_approach_date": "2017-12-02",
            "close_approach_date_full": "2017-Dec-02 15:11",
            "epoch_date_close_approach": 1512227460000,
            "relative_velocity": {
                "kilometers_per_second": "4.0851439743",
                "kilometers_per_hour": "14706.5183073935",
                "miles_per_hour": "9138.0585560579"
            },
            "miss_distance": {
                "astronomical": "0.1863909775",
                "lunar": "72.5060902475",
                "kilometers": "27883693.221217925",
                "miles": "17326123.544640365"
            },
            "orbiting_body": "Earth"
        },
        {
            "close_approach_date": "2021-12-03",
            "close_approach_date_full": "2021-Dec-03 01:55",
            "epoch_date_close_approach": 1638496500000,
            "relative_velocity": {
                "kilometers_per_second": "5.3850218501",
                "kilometers_per_hour": "19386.0786603924",
                "miles_per_hour": "12045.7553765088"
            },
            "miss_distance": {
                "astronomical": "0.2981055116",
                "lunar": "115.9630440124",
                "kilometers": "44595949.570620292",
                "miles": "27710638.1038203496"
            },
            "orbiting_body": "Earth"
        }
    ],
    "orbital_data": {
        "orbit_id": "8",
        "orbit_determination_date": "2017-12-21 06:28:26",
        "first_observation_date": "2017-11-14",
        "last_observation_date": "2017-12-21",
        "data_arc_in_days": 37,
        "observations_used": 47,
        "orbit_uncertainty": "6",
        "minimum_orbit_intersection": ".193505",
        "jupiter_tisserand_invariant": "3.254",
        "epoch_osculation": "2459000.5",
        "eccentricity": ".5299417834428175",
        "semi_major_axis": "2.504172008609741",
        "inclination": "1.620675421214878",
        "ascending_node_longitude": "11.97046226469566",
        "orbital_period": "1447.420308941598",
        "perihelion_distance": "1.177106628319512",
        "perihelion_argument": "59.60249041018086",
        "aphelion_distance": "3.831237388899969",
        "perihelion_time": "2459539.421313035928",
        "mean_anomaly": "225.960376889556",
        "mean_motion": ".2487183562204154",
        "equinox": "J2000",
        "orbit_class": {
            "orbit_class_type": "AMO",
            "orbit_class_description": "Near-Earth asteroid orbits similar to that of 1221 Amor",
            "orbit_class_range": "1.017 AU < q (perihelion) < 1.3 AU"
        }
    },
    "is_sentry_object": false
}